STARLINK-3233           
1 49746U 21115Y   25266.19078254  .00001115  00000+0  88112-4 0  9998
2 49746  53.2164 181.0521 0001252  90.7393 269.3743 15.08844207210244
STARLINK-3247           
1 49747U 21115Z   25266.17973359  .00001290  00000+0  99114-4 0  9995
2 49747  53.2174 181.1034 0001476  94.2775 265.8386 15.08853182210243
STARLINK-3248           
1 49748U 21115AA  25265.49521545  .00000216  00000+0  31637-4 0  9999
2 49748  53.2171 183.7510 0001332  88.4583 271.6562 15.08838685210153
STARLINK-3250           
1 49749U 21115AB  25266.01145106 -.00001227  00000+0 -59035-4 0  9991
2 49749  53.2174 182.0999 0001354  90.4698 269.6449 15.08842073210218
STARLINK-3236           
1 49750U 21115AC  25266.20645880  .00001325  00000+0  10128-3 0  9994
2 49750  53.2176 180.9909 0001382  92.2729 267.8421 15.08848562210259
STARLINK-3229           
1 49751U 21115AD  25266.18708684  .00005744  00000+0  37876-3 0  9992
2 49751  53.2157 180.9929 0001205  99.9184 260.1945 15.08829491210251
STARLINK-3209           
1 49752U 21115AE  25266.02337683  .00002676  00000+0  18621-3 0  9991
2 49752  53.2171 171.8142 0001445  84.4400 275.6757 15.08831802210363
STARLINK-3200           
1 49753U 21115AF  25266.20181526  .00001327  00000+0  10141-3 0  9996
2 49753  53.2167 181.0017 0001277  84.9777 275.1362 15.08851567210253
STARLINK-3193           
1 49754U 21115AG  25266.02611559  .00000516  00000+0  50520-4 0  9996
2 49754  53.2162 171.8940 0001452  98.0651 262.0506 15.08839214210365
STARLINK-3210           
1 49755U 21115AH  25266.01511038  .00000074  00000+0  22706-4 0  9991
2 49755  53.2159 181.8894 0001209  87.6515 272.4615 15.08841066210223
STARLINK-3207           
1 49756U 21115AJ  25266.03346127  .00000404  00000+0  43446-4 0  9990
2 49756  53.2160 171.7614 0001213  90.9750 269.1381 15.08843521210363
STARLINK-3197           
1 49757U 21115AK  25266.02705755  .00000095  00000+0  24058-4 0  9990
2 49757  53.2166 171.7968 0001345  88.7215 271.3931 15.08846874210369
STARLINK-3194           
1 49758U 21115AL  25265.90834693  .00000080  00000+0  23134-4 0  9999
2 49758  53.2165 172.3218 0001303  94.2721 265.8420 15.08837351210341
STARLINK-3204           
1 49759U 21115AM  25265.16866252  .00000246  00000+0  33537-4 0  9996
2 49759  53.2165 175.6423 0001299  87.1245 272.9896 15.08841555210237
STARLINK-3199           
1 49760U 21115AN  25266.04818901  .00000862  00000+0  72251-4 0  9994
2 49760  53.2165 171.6930 0001308  95.3403 264.7738 15.08844931210376
STARLINK-3203           
1 49761U 21115AP  25266.03714716  .00000664  00000+0  59817-4 0  9996
2 49761  53.2161 171.7452 0001329 102.2348 257.8793 15.08841140210364
