[{"OBJECT_NAME":"STARLINK-3233","OBJECT_ID":"2021-115Y","EPOCH":"2025-09-23T04:34:43.611456","MEAN_MOTION":15.08844207,"ECCENTRICITY":0.00012523,"INCLINATION":53.2164,"RA_OF_ASC_NODE":181.0521,"ARG_OF_PERICENTER":90.7393,"MEAN_ANOMALY":269.3743,"EPHEMERIS_TYPE":0,"CLASSIFICATION_TYPE":"U","NORAD_CAT_ID":49746,"ELEMENT_SET_NO":999,"REV_AT_EPOCH":21024,"BSTAR":8.8112066e-5,"MEAN_MOTION_DOT":1.115e-5,"MEAN_MOTION_DDOT":0},{"OBJECT_NAME":"STARLINK-3247","OBJECT_ID":"2021-115Z","EPOCH":"2025-09-23T04:18:48.982176","MEAN_MOTION":15.08853182,"ECCENTRICITY":0.00014766,"INCLINATION":53.2174,"RA_OF_ASC_NODE":181.1034,"ARG_OF_PERICENTER":94.2775,"MEAN_ANOMALY":265.8386,"EPHEMERIS_TYPE":0,"CLASSIFICATION_TYPE":"U","NORAD_CAT_ID":49747,"ELEMENT_SET_NO":999,"REV_AT_EPOCH":21024,"BSTAR":9.9113725e-5,"MEAN_MOTION_DOT":1.29e-5,"MEAN_MOTION_DDOT":0},{"OBJECT_NAME":"STARLINK-3248","OBJECT_ID":"2021-115AA","EPOCH":"2025-09-22T11:53:06.614880","MEAN_MOTION":15.08838685,"ECCENTRICITY":0.00013329,"INCLINATION":53.2171,"RA_OF_ASC_NODE":183.751,"ARG_OF_PERICENTER":88.4583,"MEAN_ANOMALY":271.6562,"EPHEMERIS_TYPE":0,"CLASSIFICATION_TYPE":"U","NORAD_CAT_ID":49748,"ELEMENT_SET_NO":999,"REV_AT_EPOCH":21015,"BSTAR":3.1637337e-5,"MEAN_MOTION_DOT":2.16e-6,"MEAN_MOTION_DDOT":0},{"OBJECT_NAME":"STARLINK-3250","OBJECT_ID":"2021-115AB","EPOCH":"2025-09-23T00:16:29.371584","MEAN_MOTION":15.08842073,"ECCENTRICITY":0.00013547,"INCLINATION":53.2174,"RA_OF_ASC_NODE":182.0999,"ARG_OF_PERICENTER":90.4698,"MEAN_ANOMALY":269.6449,"EPHEMERIS_TYPE":0,"CLASSIFICATION_TYPE":"U","NORAD_CAT_ID":49749,"ELEMENT_SET_NO":999,"REV_AT_EPOCH":21021,"BSTAR":-5.9034735e-5,"MEAN_MOTION_DOT":-1.227e-5,"MEAN_MOTION_DDOT":0},{"OBJECT_NAME":"STARLINK-3236","OBJECT_ID":"2021-115AC","EPOCH":"2025-09-23T04:57:18.040320","MEAN_MOTION":15.08848562,"ECCENTRICITY":0.00013828,"INCLINATION":53.2176,"RA_OF_ASC_NODE":180.9909,"ARG_OF_PERICENTER":92.2729,"MEAN_ANOMALY":267.8421,"EPHEMERIS_TYPE":0,"CLASSIFICATION_TYPE":"U","NORAD_CAT_ID":49750,"ELEMENT_SET_NO":999,"REV_AT_EPOCH":21025,"BSTAR":0.00010128416,"MEAN_MOTION_DOT":1.325e-5,"MEAN_MOTION_DDOT":0},{"OBJECT_NAME":"STARLINK-3229","OBJECT_ID":"2021-115AD","EPOCH":"2025-09-23T04:29:24.302976","MEAN_MOTION":15.08829491,"ECCENTRICITY":0.00012054,"INCLINATION":53.2157,"RA_OF_ASC_NODE":180.9929,"ARG_OF_PERICENTER":99.9184,"MEAN_ANOMALY":260.1945,"EPHEMERIS_TYPE":0,"CLASSIFICATION_TYPE":"U","NORAD_CAT_ID":49751,"ELEMENT_SET_NO":999,"REV_AT_EPOCH":21025,"BSTAR":0.00037876376,"MEAN_MOTION_DOT":5.744e-5,"MEAN_MOTION_DDOT":0},{"OBJECT_NAME":"STARLINK-3209","OBJECT_ID":"2021-115AE","EPOCH":"2025-09-23T00:33:39.758112","MEAN_MOTION":15.08831802,"ECCENTRICITY":0.00014457,"INCLINATION":53.2171,"RA_OF_ASC_NODE":171.8142,"ARG_OF_PERICENTER":84.44,"MEAN_ANOMALY":275.6757,"EPHEMERIS_TYPE":0,"CLASSIFICATION_TYPE":"U","NORAD_CAT_ID":49752,"ELEMENT_SET_NO":999,"REV_AT_EPOCH":21036,"BSTAR":0.00018620885,"MEAN_MOTION_DOT":2.676e-5,"MEAN_MOTION_DDOT":0},{"OBJECT_NAME":"STARLINK-3200","OBJECT_ID":"2021-115AF","EPOCH":"2025-09-23T04:50:36.838464","MEAN_MOTION":15.08851567,"ECCENTRICITY":0.00012777,"INCLINATION":53.2167,"RA_OF_ASC_NODE":181.0017,"ARG_OF_PERICENTER":84.9777,"MEAN_ANOMALY":275.1362,"EPHEMERIS_TYPE":0,"CLASSIFICATION_TYPE":"U","NORAD_CAT_ID":49753,"ELEMENT_SET_NO":999,"REV_AT_EPOCH":21025,"BSTAR":0.00010141136,"MEAN_MOTION_DOT":1.327e-5,"MEAN_MOTION_DDOT":0},{"OBJECT_NAME":"STARLINK-3193","OBJECT_ID":"2021-115AG","EPOCH":"2025-09-23T00:37:36.386976","MEAN_MOTION":15.08839214,"ECCENTRICITY":0.00014527,"INCLINATION":53.2162,"RA_OF_ASC_NODE":171.894,"ARG_OF_PERICENTER":98.0651,"MEAN_ANOMALY":262.0506,"EPHEMERIS_TYPE":0,"CLASSIFICATION_TYPE":"U","NORAD_CAT_ID":49754,"ELEMENT_SET_NO":999,"REV_AT_EPOCH":21036,"BSTAR":5.0519827e-5,"MEAN_MOTION_DOT":5.16e-6,"MEAN_MOTION_DDOT":0},{"OBJECT_NAME":"STARLINK-3210","OBJECT_ID":"2021-115AH","EPOCH":"2025-09-23T00:21:45.536832","MEAN_MOTION":15.08841066,"ECCENTRICITY":0.00012099,"INCLINATION":53.2159,"RA_OF_ASC_NODE":181.8894,"ARG_OF_PERICENTER":87.6515,"MEAN_ANOMALY":272.4615,"EPHEMERIS_TYPE":0,"CLASSIFICATION_TYPE":"U","NORAD_CAT_ID":49755,"ELEMENT_SET_NO":999,"REV_AT_EPOCH":21022,"BSTAR":2.2706041e-5,"MEAN_MOTION_DOT":7.4e-7,"MEAN_MOTION_DDOT":0},{"OBJECT_NAME":"STARLINK-3207","OBJECT_ID":"2021-115AJ","EPOCH":"2025-09-23T00:48:11.053728","MEAN_MOTION":15.08843521,"ECCENTRICITY":0.00012131,"INCLINATION":53.216,"RA_OF_ASC_NODE":171.7614,"ARG_OF_PERICENTER":90.975,"MEAN_ANOMALY":269.1381,"EPHEMERIS_TYPE":0,"CLASSIFICATION_TYPE":"U","NORAD_CAT_ID":49756,"ELEMENT_SET_NO":999,"REV_AT_EPOCH":21036,"BSTAR":4.3445503e-5,"MEAN_MOTION_DOT":4.04e-6,"MEAN_MOTION_DDOT":0},{"OBJECT_NAME":"STARLINK-3197","OBJECT_ID":"2021-115AK","EPOCH":"2025-09-23T00:38:57.772320","MEAN_MOTION":15.08846874,"ECCENTRICITY":0.00013455,"INCLINATION":53.2166,"RA_OF_ASC_NODE":171.7968,"ARG_OF_PERICENTER":88.7215,"MEAN_ANOMALY":271.3931,"EPHEMERIS_TYPE":0,"CLASSIFICATION_TYPE":"U","NORAD_CAT_ID":49757,"ELEMENT_SET_NO":999,"REV_AT_EPOCH":21036,"BSTAR":2.4058211e-5,"MEAN_MOTION_DOT":9.5e-7,"MEAN_MOTION_DDOT":0},{"OBJECT_NAME":"STARLINK-3194","OBJECT_ID":"2021-115AL","EPOCH":"2025-09-22T21:48:01.174752","MEAN_MOTION":15.08837351,"ECCENTRICITY":0.00013033,"INCLINATION":53.2165,"RA_OF_ASC_NODE":172.3218,"ARG_OF_PERICENTER":94.2721,"MEAN_ANOMALY":265.842,"EPHEMERIS_TYPE":0,"CLASSIFICATION_TYPE":"U","NORAD_CAT_ID":49758,"ELEMENT_SET_NO":999,"REV_AT_EPOCH":21034,"BSTAR":2.3134333e-5,"MEAN_MOTION_DOT":8.0e-7,"MEAN_MOTION_DDOT":0},{"OBJECT_NAME":"STARLINK-3204","OBJECT_ID":"2021-115AM","EPOCH":"2025-09-22T04:02:52.441728","MEAN_MOTION":15.08841555,"ECCENTRICITY":0.00012992,"INCLINATION":53.2165,"RA_OF_ASC_NODE":175.6423,"ARG_OF_PERICENTER":87.1245,"MEAN_ANOMALY":272.9896,"EPHEMERIS_TYPE":0,"CLASSIFICATION_TYPE":"U","NORAD_CAT_ID":49759,"ELEMENT_SET_NO":999,"REV_AT_EPOCH":21023,"BSTAR":3.3537029e-5,"MEAN_MOTION_DOT":2.46e-6,"MEAN_MOTION_DDOT":0},{"OBJECT_NAME":"STARLINK-3199","OBJECT_ID":"2021-115AN","EPOCH":"2025-09-23T01:09:23.530464","MEAN_MOTION":15.08844931,"ECCENTRICITY":0.00013089,"INCLINATION":53.2165,"RA_OF_ASC_NODE":171.693,"ARG_OF_PERICENTER":95.3403,"MEAN_ANOMALY":264.7738,"EPHEMERIS_TYPE":0,"CLASSIFICATION_TYPE":"U","NORAD_CAT_ID":49760,"ELEMENT_SET_NO":999,"REV_AT_EPOCH":21037,"BSTAR":7.2250783e-5,"MEAN_MOTION_DOT":8.62e-6,"MEAN_MOTION_DDOT":0},{"OBJECT_NAME":"STARLINK-3203","OBJECT_ID":"2021-115AP","EPOCH":"2025-09-23T00:53:29.514624","MEAN_MOTION":15.0884114,"ECCENTRICITY":0.00013295,"INCLINATION":53.2161,"RA_OF_ASC_NODE":171.7452,"ARG_OF_PERICENTER":102.2348,"MEAN_ANOMALY":257.8793,"EPHEMERIS_TYPE":0,"CLASSIFICATION_TYPE":"U","NORAD_CAT_ID":49761,"ELEMENT_SET_NO":999,"REV_AT_EPOCH":21036,"BSTAR":5.9817153e-5,"MEAN_MOTION_DOT":6.64e-6,"MEAN_MOTION_DDOT":0}]
